start=new Date('2021-09-25T00:00:00.000Z').valueOf();
sats=[{"MEAN_MOTION":"15.06402141","DECAY_DATE":null,"ELEMENT_SET_NO":"999","MEAN_ELEMENT_THEORY":"SGP4","OBJECT_NAME":"STARLINK-2706","MEAN_MOTION_DOT":"0.00001348","LAUNCH_DATE":"2021-05-09","REF_FRAME":"TEME","RA_OF_ASC_NODE":"306.7645","OBJECT_TYPE":"PAYLOAD","CLASSIFICATION_TYPE":"U","ARG_OF_PERICENTER":"136.3632","APOAPSIS":"547.440","EPHEMERIS_TYPE":"0","NORAD_CAT_ID":"48481","COUNTRY_CODE":"US","FILE":"3126002","MEAN_ANOMALY":"223.7384","GP_ID":"185389277","BSTAR":"0.00010931000000","SITE":"AFETR","RCS_SIZE":"LARGE","TIME_SYSTEM":"UTC","MEAN_MOTION_DDOT":"0.0000000000000","INCLINATION":"53.0524","OBJECT_ID":"2021-040BF","TLE_LINE2":"2 48481  53.0524 306.7645 0000337 136.3632 223.7384 15.06402141 21077","ECCENTRICITY":"0.00003370","PERIAPSIS":"546.974","SEMIMAJOR_AXIS":"6925.342","REV_AT_EPOCH":"2107","EPOCH":"2021-09-24T09:45:21.538656","CENTER_NAME":"EARTH","TLE_LINE1":"1 48481U 21040BF  21267.40649929  .00001348  00000-0  10931-3 0  9996","PERIOD":"95.592"},{"FILE":"3126647","MEAN_ANOMALY":"234.6213","COUNTRY_CODE":"US","EPHEMERIS_TYPE":"0","NORAD_CAT_ID":"48482","APOAPSIS":"547.572","ARG_OF_PERICENTER":"125.4824","CLASSIFICATION_TYPE":"U","OBJECT_TYPE":"PAYLOAD","RA_OF_ASC_NODE":"305.9037","REF_FRAME":"TEME","LAUNCH_DATE":"2021-05-09","MEAN_MOTION_DOT":"0.00001957","OBJECT_NAME":"STARLINK-2525","MEAN_ELEMENT_THEORY":"SGP4","DECAY_DATE":null,"ELEMENT_SET_NO":"999","MEAN_MOTION":"15.06400897","PERIOD":"95.592","TLE_LINE1":"1 48482U 21040BG  21267.59912635  .00001957  00000-0  15020-3 0  9994","CENTER_NAME":"EARTH","EPOCH":"2021-09-24T14:22:44.516640","REV_AT_EPOCH":"2155","SEMIMAJOR_AXIS":"6925.346","PERIAPSIS":"546.850","ECCENTRICITY":"0.00005210","TLE_LINE2":"2 48482  53.0557 305.9037 0000521 125.4824 234.6213 15.06400897 21558","OBJECT_ID":"2021-040BG","MEAN_MOTION_DDOT":"0.0000000000000","INCLINATION":"53.0557","SITE":"AFETR","RCS_SIZE":"LARGE","TIME_SYSTEM":"UTC","BSTAR":"0.00015020000000","GP_ID":"185404797"},{"TLE_LINE2":"2 48483  53.0557 306.2153 0000555 115.8314 244.2732 15.06393120 22370","SEMIMAJOR_AXIS":"6925.370","PERIAPSIS":"546.850","ECCENTRICITY":"0.00005550","RCS_SIZE":"LARGE","SITE":"AFETR","TIME_SYSTEM":"UTC","GP_ID":"185404289","BSTAR":"-0.00001677100000","INCLINATION":"53.0557","MEAN_MOTION_DDOT":"0.0000000000000","OBJECT_ID":"2021-040BH","CENTER_NAME":"EARTH","EPOCH":"2021-09-24T12:41:52.626912","TLE_LINE1":"1 48483U 21040BH  21267.52908133 -.00000531  00000-0 -16771-4 0  9990","PERIOD":"95.593","REV_AT_EPOCH":"2237","LAUNCH_DATE":"2021-05-09","MEAN_MOTION_DOT":"-0.00000531","RA_OF_ASC_NODE":"306.2153","REF_FRAME":"TEME","ELEMENT_SET_NO":"999","DECAY_DATE":null,"MEAN_ELEMENT_THEORY":"SGP4","MEAN_MOTION":"15.06393120","OBJECT_NAME":"STARLINK-2531","EPHEMERIS_TYPE":"0","NORAD_CAT_ID":"48483","COUNTRY_CODE":"US","FILE":"3126647","MEAN_ANOMALY":"244.2732","ARG_OF_PERICENTER":"115.8314","CLASSIFICATION_TYPE":"U","OBJECT_TYPE":"PAYLOAD","APOAPSIS":"547.619"},{"RA_OF_ASC_NODE":"306.6129","REF_FRAME":"TEME","LAUNCH_DATE":"2021-05-09","MEAN_MOTION_DOT":"-0.00000498","OBJECT_NAME":"STARLINK-2696","ELEMENT_SET_NO":"999","DECAY_DATE":null,"MEAN_ELEMENT_THEORY":"SGP4","MEAN_MOTION":"15.06396188","COUNTRY_CODE":"US","FILE":"3126548","MEAN_ANOMALY":"261.2137","EPHEMERIS_TYPE":"0","NORAD_CAT_ID":"48484","APOAPSIS":"547.685","ARG_OF_PERICENTER":"98.8927","OBJECT_TYPE":"PAYLOAD","CLASSIFICATION_TYPE":"U","PERIAPSIS":"546.765","SEMIMAJOR_AXIS":"6925.360","ECCENTRICITY":"0.00006640","TLE_LINE2":"2 48484  53.0552 306.6129 0000664  98.8927 261.2137 15.06396188 22368","MEAN_MOTION_DDOT":"0.0000000000000","INCLINATION":"53.0552","OBJECT_ID":"2021-040BJ","SITE":"AFETR","RCS_SIZE":"LARGE","TIME_SYSTEM":"UTC","GP_ID":"185402257","BSTAR":"-0.00001455800000","TLE_LINE1":"1 48484U 21040BJ  21267.43966929 -.00000498  00000-0 -14558-4 0  9991","PERIOD":"95.592","EPOCH":"2021-09-24T10:33:07.426656","CENTER_NAME":"EARTH","REV_AT_EPOCH":"2236"},{"EPOCH":"2021-09-24T14:28:01.779168","CENTER_NAME":"EARTH","TLE_LINE1":"1 48485U 21040BK  21267.60279837  .00000111  00000-0  26338-4 0  9995","PERIOD":"95.592","REV_AT_EPOCH":"2238","TLE_LINE2":"2 48485  53.0553 305.8883 0000545 133.2410 226.8625 15.06396181 22381","ECCENTRICITY":"0.00005450","PERIAPSIS":"546.848","SEMIMAJOR_AXIS":"6925.360","GP_ID":"185401763","BSTAR":"0.00002633800000","SITE":"AFETR","TIME_SYSTEM":"UTC","RCS_SIZE":"LARGE","INCLINATION":"53.0553","MEAN_MOTION_DDOT":"0.0000000000000","OBJECT_ID":"2021-040BK","EPHEMERIS_TYPE":"0","NORAD_CAT_ID":"48485","FILE":"3126548","MEAN_ANOMALY":"226.8625","COUNTRY_CODE":"US","OBJECT_TYPE":"PAYLOAD","CLASSIFICATION_TYPE":"U","ARG_OF_PERICENTER":"133.2410","APOAPSIS":"547.603","MEAN_MOTION_DOT":"0.00000111","LAUNCH_DATE":"2021-05-09","REF_FRAME":"TEME","RA_OF_ASC_NODE":"305.8883","MEAN_MOTION":"15.06396181","DECAY_DATE":null,"ELEMENT_SET_NO":"999","MEAN_ELEMENT_THEORY":"SGP4","OBJECT_NAME":"STARLINK-2500"},{"BSTAR":"0.00022369000000","GP_ID":"185404312","TIME_SYSTEM":"UTC","SITE":"AFETR","RCS_SIZE":"LARGE","OBJECT_ID":"2021-040BL","INCLINATION":"53.0525","MEAN_MOTION_DDOT":"0.0000000000000","TLE_LINE2":"2 48486  53.0525 306.4688 0000348 114.5241 245.5784 15.06408568 22361","ECCENTRICITY":"0.00003480","SEMIMAJOR_AXIS":"6925.322","PERIAPSIS":"546.946","REV_AT_EPOCH":"2236","EPOCH":"2021-09-24T11:22:15.683232","CENTER_NAME":"EARTH","PERIOD":"95.592","TLE_LINE1":"1 48486U 21040BL  21267.47379263  .00003053  00000-0  22369-3 0  9992","MEAN_MOTION":"15.06408568","MEAN_ELEMENT_THEORY":"SGP4","DECAY_DATE":null,"ELEMENT_SET_NO":"999","OBJECT_NAME":"STARLINK-2496","MEAN_MOTION_DOT":"0.00003053","LAUNCH_DATE":"2021-05-09","REF_FRAME":"TEME","RA_OF_ASC_NODE":"306.4688","OBJECT_TYPE":"PAYLOAD","CLASSIFICATION_TYPE":"U","ARG_OF_PERICENTER":"114.5241","APOAPSIS":"547.428","EPHEMERIS_TYPE":"0","NORAD_CAT_ID":"48486","COUNTRY_CODE":"US","FILE":"3126648","MEAN_ANOMALY":"245.5784"},{"PERIAPSIS":"546.651","SEMIMAJOR_AXIS":"6925.337","ECCENTRICITY":"0.00007950","TLE_LINE2":"2 48487  53.0564 305.8579 0000795 114.1487 245.9586 15.06403791 22391","MEAN_MOTION_DDOT":"0.0000000000000","INCLINATION":"53.0564","OBJECT_ID":"2021-040BM","SITE":"AFETR","TIME_SYSTEM":"UTC","RCS_SIZE":"LARGE","GP_ID":"185404317","BSTAR":"0.00012602000000","TLE_LINE1":"1 48487U 21040BM  21267.61017445  .00001597  00000-0  12602-3 0  9990","PERIOD":"95.592","CENTER_NAME":"EARTH","EPOCH":"2021-09-24T14:38:39.072480","REV_AT_EPOCH":"2239","RA_OF_ASC_NODE":"305.8579","REF_FRAME":"TEME","LAUNCH_DATE":"2021-05-09","MEAN_MOTION_DOT":"0.00001597","OBJECT_NAME":"STARLINK-2494","DECAY_DATE":null,"ELEMENT_SET_NO":"999","MEAN_ELEMENT_THEORY":"SGP4","MEAN_MOTION":"15.06403791","FILE":"3126648","COUNTRY_CODE":"US","MEAN_ANOMALY":"245.9586","NORAD_CAT_ID":"48487","EPHEMERIS_TYPE":"0","APOAPSIS":"547.753","ARG_OF_PERICENTER":"114.1487","CLASSIFICATION_TYPE":"U","OBJECT_TYPE":"PAYLOAD"},{"TLE_LINE2":"2 48553  53.0633 235.6459 0001145  52.3017 307.8076 15.06394889 19970","ECCENTRICITY":"0.00011450","PERIAPSIS":"546.436","SEMIMAJOR_AXIS":"6925.364","BSTAR":"-0.00003495100000","GP_ID":"185430654","SITE":"AFETR","RCS_SIZE":"LARGE","TIME_SYSTEM":"UTC","OBJECT_ID":"2021-041A","MEAN_MOTION_DDOT":"0.0000000000000","INCLINATION":"53.0633","EPOCH":"2021-09-24T15:41:00.558816","CENTER_NAME":"EARTH","PERIOD":"95.592","TLE_LINE1":"1 48553U 21041A   21267.65347869 -.00000802  00000-0 -34951-4 0  9997","REV_AT_EPOCH":"1997","MEAN_MOTION_DOT":"-0.00000802","LAUNCH_DATE":"2021-05-15","REF_FRAME":"TEME","RA_OF_ASC_NODE":"235.6459","MEAN_MOTION":"15.06394889","MEAN_ELEMENT_THEORY":"SGP4","DECAY_DATE":null,"ELEMENT_SET_NO":"999","OBJECT_NAME":"STARLINK-2063","EPHEMERIS_TYPE":"0","NORAD_CAT_ID":"48553","FILE":"3126800","COUNTRY_CODE":"US","MEAN_ANOMALY":"307.8076","OBJECT_TYPE":"PAYLOAD","CLASSIFICATION_TYPE":"U","ARG_OF_PERICENTER":"52.3017","APOAPSIS":"548.022"},{"OBJECT_NAME":"STARLINK-2139","MEAN_MOTION":"15.06406461","ELEMENT_SET_NO":"999","DECAY_DATE":null,"MEAN_ELEMENT_THEORY":"SGP4","REF_FRAME":"TEME","RA_OF_ASC_NODE":"237.1158","MEAN_MOTION_DOT":"0.00001672","LAUNCH_DATE":"2021-05-15","APOAPSIS":"548.037","OBJECT_TYPE":"PAYLOAD","CLASSIFICATION_TYPE":"U","ARG_OF_PERICENTER":"24.1401","MEAN_ANOMALY":"335.9645","FILE":"3126506","COUNTRY_CODE":"US","EPHEMERIS_TYPE":"0","NORAD_CAT_ID":"48554","INCLINATION":"53.0579","MEAN_MOTION_DDOT":"0.0000000000000","OBJECT_ID":"2021-041B","GP_ID":"185400840","BSTAR":"0.00013112000000","SITE":"AFETR","TIME_SYSTEM":"UTC","RCS_SIZE":"LARGE","ECCENTRICITY":"0.00012170","PERIAPSIS":"546.351","SEMIMAJOR_AXIS":"6925.329","TLE_LINE2":"2 48554  53.0579 237.1158 0001217  24.1401 335.9645 15.06406461 20322","REV_AT_EPOCH":"2032","TLE_LINE1":"1 48554U 21041B   21267.32911094  .00001672  00000-0  13112-3 0  9998","PERIOD":"95.592","EPOCH":"2021-09-24T07:53:55.185216","CENTER_NAME":"EARTH"},{"OBJECT_TYPE":"PAYLOAD","CLASSIFICATION_TYPE":"U","ARG_OF_PERICENTER":"48.6820","APOAPSIS":"547.919","NORAD_CAT_ID":"48555","EPHEMERIS_TYPE":"0","FILE":"3126002","MEAN_ANOMALY":"311.4256","COUNTRY_CODE":"US","MEAN_MOTION":"15.06400041","ELEMENT_SET_NO":"999","DECAY_DATE":null,"MEAN_ELEMENT_THEORY":"SGP4","OBJECT_NAME":"STARLINK-2145","MEAN_MOTION_DOT":"0.00000940","LAUNCH_DATE":"2021-05-15","REF_FRAME":"TEME","RA_OF_ASC_NODE":"246.9910","REV_AT_EPOCH":"1978","EPOCH":"2021-09-24T08:35:04.021152","CENTER_NAME":"EARTH","TLE_LINE1":"1 48555U 21041C   21267.35768543  .00000940  00000-0  82011-4 0  9993","PERIOD":"95.592","GP_ID":"185389071","BSTAR":"0.00008201100000","TIME_SYSTEM":"UTC","SITE":"AFETR","RCS_SIZE":"LARGE","INCLINATION":"53.0547","MEAN_MOTION_DDOT":"0.0000000000000","OBJECT_ID":"2021-041C","TLE_LINE2":"2 48555  53.0547 246.9910 0001019  48.6820 311.4256 15.06400041 19781","ECCENTRICITY":"0.00010190","SEMIMAJOR_AXIS":"6925.348","PERIAPSIS":"546.508"}];
